{"fetched_at":"2026-03-29T16:36:15Z","count":15609,"tles":[{"name":"STARLINK-11611 [DTC]","line1":"1 63138U 25043G   26087.82966676  .00208584  00000+0  15801-2 0  9991","line2":"2 63138  42.9973 135.2300 0002667 303.3679  56.6933 15.70966081 62488","category":"Starlink"}]}