{
  "norad_id": 63138,
  "name": "STARLINK-11611 [DTC]",
  "history": [
    {
      "epoch": "2026-03-28T19:54:43.208064Z",
      "apogee_km": 357.9312242431297,
      "perigee_km": 354.3382209082656,
      "latitude_deg": -6.709155985419967e-06,
      "longitude_deg": 10.30546647197862,
      "height_km": 354.91953943869106,
      "semi_major_axis_km": 6734.271722575697,
      "eccentricity": 0.00026677,
      "inclination_deg": 42.9973,
      "raan_deg": 135.23,
      "arg_perigee_deg": 303.3679,
      "mean_anomaly_deg": 56.6933,
      "mean_motion_rev_day": 15.70966081
    }
  ]
}